Provider Name,Address,City,Zip Code,Doses Administered,Lat,Long
3134 N CLARK OUTPATIENT CENTER,3134 N CLARK ST,CHICAGO,60657,41,41.9385363,-87.6503283
3P4CARE(IL) LLC,3502 N KEDZIE AVE,CHICAGO,60618,1008,41.9449701,-87.7079323
7 HILLS HEALTHCARE CENTER,8419 S COTTAGE GROVE AVE,CHICAGO,60619,1500,41.7414805,-87.604559
AAYU CLINICS LAKEVIEW,1645 W SCHOOL ST,CHICAGO,60657,2383,41.9412632,-87.6702067
ABRAHAMS MARK COMPREHENSIVE WELLNESS CENTER,9500 S DORCHESTER AVE,CHICAGO,60628,34,41.721989,-87.5909002
ACCESS ASHLAND FAMILY HEALTH CENTER,5159 S ASHLAND AVE,CHICAGO,60609,13893,41.799733,-87.6643935
ACCESS AUBURN GRESHAM,8234 S ASHLAND AVE,CHICAGO,60620,41,41.7438558,-87.6636229
ACCESS AUSTIN FAMILY HEALTH CENTER,4909 W DIVISION ST,CHICAGO,60651,112,41.9019651,-87.7492275
ACCESS BOOKER,654 E 47TH ST,CHICAGO,60653,108,41.8097075,-87.6093424
ACCESS BRANDON FAMILY HEALTH CENTER,2822 E 83RD ST,CHICAGO,60617,162,41.7448501,-87.5554231
ACCESS BRICKYARD,6020 W DIVERSEY AVE,CHICAGO,60639,608,41.9313296,-87.7768329
ACCESS CABRINI FAMILY HEALTH CENTER,3450 S ARCHER AVE,CHICAGO,60608,417,41.8313444,-87.6766367
ACCESS CENTRO MEDICO,3700 W 26TH ST,CHICAGO,60623,282,41.8444853,-87.7173954
ACCESS CENTRO MEDICO SAN RAFAEL,3204 W 26TH ST,CHICAGO,60623,1105,41.8447057,-87.705465
ACCESS DOCTORS MEDICAL CENTER,6240 W 55TH ST,CHICAGO,60638,263,41.792632,-87.7785623
ACCESS GARY COMER YOUTH CENTER,7200 S INGLESIDE AVE,CHICAGO,60619,12,41.7640867,-87.6023599
ACCESS GRAND BLVD,5401 S WENTWORTH AVE,CHICAGO,60609,181,41.7957561,-87.6303028
ACCESS HOLY CROSS,2701 W. 68TH ST,CHICAGO,60629,383,41.7690386,-87.6927027
ACCESS HUMBOLDT PARK,3202 W NORTH AVE,CHICAGO,60647,142,41.9104483,-87.7070624
ACCESS KEDZIE FAMILY HEALTH CENTER,3229 W 47TH PL,CHICAGO,60632,769,41.8058739,-87.7050006
ACCESS MADISON FAMILY HEALTH CENTER,3800 W MADISON ST,CHICAGO,60624,3862,41.8809781,-87.7210465
ACCESS PILSEN COMMUNITY HEALTH CENTER,1817 S LOOMIS ST,CHICAGO,60608,312,41.8573309,-87.6610018
ACCESS PLAZA MEDICAL CENTER,2533 W CERMAK RD,CHICAGO,60608-3719,10087,41.8505252,-87.6892726
ACCESS ROGERS PARK,1555 W HOWARD ST,CHICAGO,60626,235,42.0190946,-87.670252
ACCESS SERVICIOS MEDICOS LA VILLITA,3303 W 26TH ST,CHICAGO,60623,504,41.8438792,-87.7077938
ACCESS SINAI,2653 W OGDEN AVE,CHICAGO,60608,494,41.8617368,-87.6930007
ACCESS SOUTHWEST HEALTH CENTER,4839 W 47TH ST,CHICAGO,60638,190,41.8074133,-87.7447472
ACCESS WARREN MEDICAL CENTER,2409 W WARREN BLVD,CHICAGO,60612,65,41.8818118,-87.6868076
ACCESS WESTSIDE FAMILY HEALTH CENTER,3752 W 16TH ST,CHICAGO,60623,150,41.8591271,-87.719686
ACHN AT JORGE PRIETO HEALTH CTR,2424 S PULASKI RD,CHICAGO,60623,4228,41.8471282,-87.7249191
ADVANCED URGENT CARE CHICAGO,5907 W 63RD ST,CHICAGO,60638,46,41.7776767,-87.7693956
ADVOCATE ILLINOIS MASONIC MEDICAL CENTER,836 W WELLINGTON AVE,CHICAGO,60657,40407,41.9367723,-87.6511754
ADVOCATE ILLINOIS MASONIC WRIGLEY FIELD,4015 N ASHLAND AVE,CHICAGO,60613,38307,41.9551713,-87.668517
ADVOCATE MEDICAL GROUP BEVERLY,9831 S WESTERN AVE,CHICAGO,60643,862,41.7145525,-87.6814582
ADVOCATE MEDICAL GROUP EVERGREEN,1357 W 103RD ST,CHICAGO,60643,596,41.7062028,-87.6570341
ADVOCATE MEDICAL GROUP IMANI,901 E 95TH ST,CHICAGO,60619,499,41.7209781,-87.6020899
ADVOCATE MEDICAL GROUP LOGAN SQUARE,2511 N KEDZIE BLVD,CHICAGO,60647,128,41.9269652,-87.7065521
ADVOCATE MEDICAL GROUP PETERSON,4801 W PETERSON AVE STE 506,CHICAGO,60646,33,41.9895814,-87.7490025
ADVOCATE MEDICAL GROUP SOUTHEAST CENTER,2301 E 93RD ST FL 3,CHICAGO,60617,257,41.725954,-87.5679006
ADVOCATE MEDICAL GROUP SYKES,2545 S. ML KING DR # SPECIALTY,CHICAGO,60616,937,41.8471005,-87.6154354
ADVOCATE MEDICAL GROUP WILSON,1945 W WILSON AVE STE 4000,CHICAGO,60640,51,41.9648205,-87.6785311
ADVOCATE TRINITY HOSPITAL,2320 E 93RD ST IMPATIENT PHARMACY,CHICAGO,60617,28420,41.7265222,-87.5679334
AHF CHICAGO HCC,2600 S MICHIGAN AVE,CHICAGO,60616,99,41.8454489,-87.6238955
AHF PHARMACY CHICAGO,3311 N HALSTED ST,CHICAGO,60657,70,41.9423054,-87.6490191
ALIVIO MEDICAL CENTER MORGAN,966 W 21ST ST,CHICAGO,60608,15019,41.8542188,-87.650945
ALIVIO MEDICAL CENTER WESTERN AVE,2355 S WESTERN AVE,CHICAGO,60608,2946,41.8487708,-87.6851965
ALL CARE FAMILY MEDICAL INC.,4753 N ELSTON AVE,CHICAGO,60630,123,41.96753,-87.7388456
ALLIANCE IMMEDIATE AND PRIMARY CARE,4332 N ELSTON AVE,CHICAGO,60641,2873,41.9591809,-87.7275447
AMERICAN AIRLINES,O'HARE AIRPORT TERMINAL 3,CHICAGO,60666-,3033,41.9756473,-87.9031593
AMERICAN INDIAN HEALTH SERVICES,4326 W MONTROSE AVE,CHICAGO,60641,387,41.960991,-87.736814
AMITA HEALTH ARMITAGE FAMILY PRACTICE,3224 W ARMITAGE AVE,CHICAGO,60647,413,41.917606,-87.708121
AMITA HEALTH AVONDALE PRIMARY CARE,2923 N CALIFORNIA AVE STE 200,CHICAGO,60618,53,41.9346707,-87.6973347
AMITA HEALTH BUCKTOWN,1658 N MILWAUKEE AVE,CHICAGO,60647,167,41.911521,-87.6798316
AMITA HEALTH CHEN,4833 N MILWAUKEE AVE,CHICAGO,60630,12374,41.9687423,-87.7611146
AMITA HEALTH CHICAGO HAMLIN MEDICAL CENTER,3758 W CHICAGO AVE,CHICAGO,60651,341,41.8955973,-87.7209174
AMITA HEALTH FAMILY PRACTICE CENTER,7447 W TALCOTT AVE STE 182,CHICAGO,60631,34,41.9876662,-87.8145522
AMITA HEALTH FULLERTON,1150 W FULLERTON AVE,CHICAGO,60614,110,41.9255299,-87.6581886
AMITA HEALTH LINCOLN PARK,"2800 N. SHERIDAN RD,",CHICAGO,60657,269,41.9331736,-87.6398818
AMITA HEALTH MARINE DR,"2800 N SHERIDAN RD, SUITE 300",CHICAGO,60657-,155,41.9331663,-87.6397532
AMITA HEALTH N CICERO,2259 N CICERO AVE,CHICAGO,60639,672,41.9223019,-87.7457854
AMITA HEALTH NORRIDGE,7447 W TALCOTT AVE STE 121,CHICAGO,60631,64,41.9876662,-87.8145522
AMITA HEALTH NORTHSIDE FAMILY MEDICINE,2800 N SHERIDAN RD,CHICAGO,60657,396,41.9331736,-87.6398818
AMITA HEALTH NORWOOD PARK PEDIATRICS,7447 W TALCOTT AVE STE 467,CHICAGO,60631,4,41.9876662,-87.8145522
AMITA HEALTH PARK WEST FAMILY PHYSICIANS,830 W. DIVERSEY PKWY.,CHICAGO,60614-,560,41.9329203,-87.6502875
AMITA HEALTH PETERSON,3500 W PETERSON AVE STE 300,CHICAGO,60659,412,41.9905202,-87.7167085
AMITA HEALTH S ARCHER,6084 S ARCHER AVE,CHICAGO,60638,750,41.7948353,-87.7699914
AMITA HEALTH SAINTS MARY AND ELIZABETH MEDICAL CENTER,2233 W DIVISION ST # VACCINES,CHICAGO,60622,8982,41.9020876,-87.6829261
AMITA HEALTH SETON FAMILY HEALTH CENTER,711 W NORTH AVE,CHICAGO,60610,690,41.9107836,-87.6462047
AMITA HEALTH STONEY ISLAND,9000 S STONY ISLAND AVE,CHICAGO,60617,162,41.7312528,-87.5858446
AMITA HEALTH UKRAINIAN VILLAGE,1431 N WESTERN AVE STE 503,CHICAGO,60622,113,41.9075557,-87.6863556
AMITA HEALTH UNITED HERE HEALTH,218 S WABASH AVE,CHICAGO,60604,197,41.878938,-87.6264533
AMITA SAINT JOSEPH HOSPITAL CHICAGO,2900 N LAKE SHORE DR,CHICAGO,60657,3077,41.9340924,-87.6373774
ANGEL HEALTHCARE SERVICES,7906 S CRANDON AVE,CHICAGO,60617,726,41.7514208,-87.5690144
ANGEL MEDICAL CENTER,2619 S LAWNDALE AVE,CHICAGO,60623,634,41.843679,-87.716863
ANN AND ROBERT H. LURIE CHILDREN'S HOSPITAL OF CHICAGO,225 EAST CHICAGO AVENUE # PHARMACY SOPHIA PARHAS,CHICAGO,60611,25868,41.8965812,-87.6202747
ANNITA JOHN M.D. P.C.,10237 S WESTERN AVE,CHICAGO,60643,2,41.7071221,-87.6813426
ANOINTED HEALTH PARTNERS,2200 E 93RD ST,CHICAGO,60617,66,41.7264568,-87.5703657
ARCHER FAMILY MEDICAL GROUP,6649 W ARCHER AVE,CHICAGO,60638,437,41.7919392,-87.7886259
ARMITAGE PHARMACY,3650 W ARMITAGE AVE STE 100,CHICAGO,60647,3144,41.9174104,-87.7187624
ASIAN HUMAN SERVICES FAMILY HEALTH,2424 W PETERSON AVE,CHICAGO,60659,2389,41.9907595,-87.6905364
ASIAN HUMAN SERVICES FAMILY HEALTH WEST,2501 W PETERSON AVE,CHICAGO,60659,460,41.990172,-87.692302
AUNT MARTHAS S MICHIGAN,5001 S MICHIGAN AVE,CHICAGO,60615,353,41.8036089,-87.6223016
AUNT MARTHAS SOUTHEAST SIDE,3528 E 118TH ST,CHICAGO,60617,2317,41.6821476,-87.537639
BAAL PERAZIM WELLNESS,3353 S MORGAN ST UNIT 1,CHICAGO,60608,4535,41.8332329,-87.6506916
BELOVED COMMUNITY FAMILY WELLNESS CENTER,6821 S HALSTED ST,CHICAGO,60621,1939,41.7699611,-87.6442004
BODY AND MIND MEDICAL CENTER,2222 W DIVISION ST,CHICAGO,60622,83,41.9035618,-87.6830031
BOYCIN MEDICAL CENTER,5219 W MADISON ST,CHICAGO,60644-4152,1041,41.8801135,-87.7559719
CAM MEDICAL GROUP,1945 W WILSON AVE,CHICAGO,60640,231,41.9648205,-87.6785311
CAM MEDICAL GROUP/WESTERN AVE.,1349 N WESTERN AVE,CHICAGO,60622,185,41.9063322,-87.6868301
CARE ATC - COLUMBIA COLLEGE CLINIC,600 S MICHIGAN AVE,CHICAGO,60605,923,41.8741947,-87.6247696
CAVERO MEDICAL GROUP,4007 W 63RD ST,CHICAGO,60629,6315,41.7784606,-87.7230722
CDPH,2160 W OGDEN AVE,CHICAGO,60612,126461,41.869674,-87.6807291
CENTRAL MEDICAL CLINIC OF CHICAGO,5605 W GUNNISON ST,CHICAGO,60630,1982,41.9685418,-87.7678964
CERMAK HEALTH SERVICES JUVENILE TEMP. DETENTION CENTER,2160 W OGDEN AVE,CHICAGO,60612,78390,41.869674,-87.6807291
"CHICAGO AMBULATORY CARE CENTER, LTD",1044 N MOZART ST,CHICAGO,60622,7,41.9006786,-87.6996714
CHICAGO FAMILY HEALTH CENTER CHICAGO LAWN,3223 W 63RD ST,CHICAGO,60629-3333,1489,41.778497,-87.7038697
CHICAGO FAMILY HEALTH CENTER CVCA,2100 E 87TH ST DOOR 31,CHICAGO,60617,,41.7367491,-87.5754616
CHICAGO FAMILY HEALTH CENTER EAST SIDE,10536 S EWING AVE,CHICAGO,60617,455,41.7035012,-87.5355809
CHICAGO FAMILY HEALTH CENTER PULLMAN,570 E 115TH ST,CHICAGO,60628,2985,41.685701,-87.608738
CHICAGO FAMILY HEALTH CENTER ROSELAND,120 W 111TH ST,CHICAGO,60628,2910,41.6928817,-87.6267297
CHICAGO FAMILY HEALTH CENTER SOUTH CHICAGO,9119 S EXCHANGE AVE,CHICAGO,60617,6283,41.7292988,-87.5521781
CHICAGO HEALTH MEDICAL GROUP,6201 N BROADWAY ST,CHICAGO,60660,42,41.9949892,-87.6597711
CHICAGO PEDIATRIC & NEONATOLOGY,7447 W TALCOTT AVE STE 561,CHICAGO,60631,2312,41.9876662,-87.8145522
CHICAGO PEDIATRICS,8537 S CICERO AVE,CHICAGO,60652-3504,297,41.7371501,-87.7406149
CHICAGO PUBLIC SCHOOLS,42 W MADISON ST,CHICAGO,60602,10930,41.8821343,-87.6286451
CHICAGO READ MENTAL HEALTH CENTER,4200 N OAK PARK AVE,CHICAGO,60634,2928,41.9553872,-87.7992391
CHICAGOLAND COMPLETE HEALTHCARE,1431 N WESTERN AVE STE 201,CHICAGO,60622,1164,41.9035196,-87.6831977
CHILDREN'S HEALTHCARE ASSOCIATES,2900 N ASHLAND AVE,CHICAGO,60657,1837,41.9343788,-87.6687622
CHILDREN'S MEDICAL CENTER,1900 W 47TH ST,CHICAGO,60609,1489,41.8087542,-87.6724265
CHRISTIAN COMMUNITY HEALTH CENTER,9718 S HALSTED ST,CHICAGO,60628,2127,41.7168916,-87.6433909
CICERO PROMPT CARE,3000 N CICERO AVE,CHICAGO,60641,238,41.9353313,-87.7470175
CIMPAR,3000 N HALSTED ST,CHICAGO,60657,23922,41.9367044,-87.6497501
COKLOW CONSULTING GROUP,5030 N MARINE DR,CHICAGO,60640,923,41.9741543,-87.6520604
COLONIAL MEDICAL CENTER,1045 W BELMONT AVE,CHICAGO,60657,450,41.9397003,-87.6558392
COMER CHILDRENS CLINICS,5721 S MARYLAND 4B,CHICAGO,60637,128697,41.7901847,-87.6045849
COMER PEDIATRIC MOBILE MEDICAL UNIT,5835 S. COTTAGE GROVE AVE,CHICAGO,60637,74,41.7880087,-87.6058554
COMMUNITY FIRST MEDICAL CENTER,5645 W ADDISON ST,CHICAGO,60634,4768,41.9457832,-87.7677306
COMMUNITYHEALTH,2611 W CHICAGO AVE,CHICAGO,60622,2815,41.8953815,-87.6923859
COMPLETE EXPRESS CARE,13336 S BALTIMORE AVE,CHICAGO,60633,153,41.6525196,-87.5473501
COMPREHENSIVE KOREAN COMMUNITY CENTER,4934 N PULASKI RD,CHICAGO,60630,969,41.9711371,-87.7284011
CONCIERGE PARTNERS,676 N MICHIGAN AVE,CHICAGO,60611,276,41.8947435,-87.6249238
COOK COUNTY HEALTH AUSTIN HEALTH CENTER,4800 W CHICAGO AVE,CHICAGO,60651,5654,41.8953175,-87.7461878
COOK COUNTY HEALTH ENGLEWOOD HEALTH CENTER,1135 W 69TH ST,CHICAGO,60621,5627,41.7684008,-87.6534117
COOK COUNTY HEALTH LOGAN SQUARE,2840 W FULLERTON AVE,CHICAGO,60647,5313,41.925078,-87.6991324
COSTCO,1430 S ASHLAND AVE,CHICAGO,60608,3890,41.8620829,-87.6678234
COSTCO,2746 N CLYBOURN AVE,CHICAGO,60614,3244,41.9305681,-87.6765922
COTTAGE VIEW/NEAR NORTH HEALTH SERVICES,4829 S COTTAGE GROVE AVE,CHICAGO,60615,2,41.8068294,-87.6060878
CVS,1211 W ROOSEVELT RD,CHICAGO,60608,729,41.8667449,-87.6571109
CVS,2434 N SACRAMENTO AVE,CHICAGO,60647,7422,41.9258614,-87.702427
CVS,3300 N ASHLAND AVE,CHICAGO,60657,364,41.9418701,-87.6695901
CVS,3204 N CLARK ST,CHICAGO,60657,591,41.9402515,-87.6513923
CVS,1346 E 53RD ST,CHICAGO,60615,504,41.7996515,-87.5935017
CVS,401 E ILLINOIS ST,CHICAGO,60611,683,41.8909049,-87.6173923
CVS,1101 W JACKSON BLVD,CHICAGO,60607,1660,41.8770351,-87.6554927
CVS,1200 N LARRABEE ST,CHICAGO,60610,822,41.9043501,-87.644284
CVS,4466 N BROADWAY ST,CHICAGO,60640,977,41.963035,-87.6565276
CVS,2112 W PETERSON AVE,CHICAGO,60659,822,41.991291,-87.6823108
CVS,1940 W 33RD ST,CHICAGO,60608,902,41.8361593,-87.6743175
CVS,6525 W DIVERSEY AVE,CHICAGO,60707,791,41.9299378,-87.7897876
CVS,1154 S CLARK ST,CHICAGO,60605,2476,41.8681604,-87.6311351
CVS,4433 S PULASKI RD,CHICAGO,60632,3753,41.8124225,-87.7219205
CVS,2939 W ADDISON ST,CHICAGO,60618,1619,41.945392,-87.702165
CVS,2656 N ELSTON AVE,CHICAGO,60647,1564,41.928476,-87.6850778
CVS,7100 S CICERO AVE,CHICAGO,60629,4572,41.7631271,-87.7434226
CVS,1034 W LAKE ST,CHICAGO,60607,1295,41.8857936,-87.6536028
CVS,670 N WELLS ST,CHICAGO,60654,1846,41.8943898,-87.6344495
CVS,310S S MICHIGAN AVE,CHICAGO,60604,1272,41.8778248,-87.6246019
CVS,6510 N SHERIDAN RD,CHICAGO,60626,1335,42.0006873,-87.6611185
CVS,205 N COLUMBUS DR,CHICAGO,60601,1992,41.8862217,-87.619717
CVS,6200 W HIGGINS AVE,CHICAGO,60630,1469,41.9753215,-87.7832507
CVS,3637 N SOUTHPORT AVE,CHICAGO,60613,914,41.9481821,-87.6636885
CVS,4051 N LINCOLN AVE,CHICAGO,60618,877,41.955545,-87.6793063
CVS,4801 N CENTRAL AVE,CHICAGO,60630,1356,41.9682735,-87.7670315
CVS,6150 N BROADWAY ST,CHICAGO,60660,2261,41.9938734,-87.6608191
CVS,771 N OGDEN AVE,CHICAGO,60642,887,41.8959984,-87.6540272
CVS,2634 S PULASKI RD,CHICAGO,60623,6619,41.8434474,-87.7248862
CVS,2427 W CHICAGO AVE,CHICAGO,60622,5791,41.895437,-87.6876198
CVS,1819 N HARLEM AVE,CHICAGO,60707,46,41.9132439,-87.8054561
CVS,741 W 31ST ST,CHICAGO,60616,727,41.8376549,-87.6453953
CVS,2414 N LINCOLN AVE,CHICAGO,60614,1062,41.9257858,-87.6496228
CVS,3940 W FULLERTON AVE,CHICAGO,60647,6132,41.9247197,-87.725958
CVS,400 W MADISON ST,CHICAGO,60606,730,41.8820553,-87.6393834
CVS,1165 N CLARK ST,CHICAGO,60610,1105,41.9036296,-87.6311686
CVS,3101 N CLARK ST,CHICAGO,60657,1468,41.938192,-87.648633
CVS,11055 S WESTERN AVE,CHICAGO,60643,4062,41.6926029,-87.680842
CVS,3156 W 103RD ST,CHICAGO,60655,1177,41.7068488,-87.7007109
CVS,6315 S PULASKI RD,CHICAGO,60629,2729,41.7783299,-87.7224408
CVS,3343 W MONTROSE AVE,CHICAGO,60618,2443,41.9608911,-87.712374
CVS,4800 N DAMEN AVE,CHICAGO,60625,977,41.9689816,-87.6794939
CVS,1228 E 53RD ST,CHICAGO,60615,1645,41.7997748,-87.594681
CVS,130 S CANAL ST,CHICAGO,60606,620,41.8796753,-87.6399445
CVS,3311 N PULASKI RD,CHICAGO,60641,1927,41.9413974,-87.7270758
CVS,3615 N CENTRAL AVE,CHICAGO,60634,2776,41.9464377,-87.7664161
CVS,1200 N ASHLAND AVE,CHICAGO,60622,885,41.9035648,-87.6679007
CVS,3033 N BROADWAY ST,CHICAGO,60657,1317,41.937479,-87.6440094
CVS,7855 S WESTERN AVE,CHICAGO,60620,1212,41.7503269,-87.6819203
CVS,205 N MICHIGAN AVE,CHICAGO,60601,834,41.8860979,-87.6240325
CVS,520 S STATE ST,CHICAGO,60605,714,41.8751143,-87.6280087
CVS,121 W KINZIE ST,CHICAGO,60654,1035,41.8889032,-87.6317574
CVS,1714 N SHEFFIELD AVE,CHICAGO,60614,936,41.9124151,-87.6534122
CVS,6417 W HIGGINS AVE,CHICAGO,60656,1430,41.9762749,-87.7885533
CVS,1201 N STATE PKWY,CHICAGO,60610,1469,41.9040998,-87.628448
CVS,401 W ARMITAGE AVE,CHICAGO,60614,681,41.9181363,-87.6391832
CVS,8712 S STONY ISLAND AVE,CHICAGO,60617,2006,41.7363872,-87.585999
CVS,208 W WASHINGTON ST,CHICAGO,60606,790,41.8834152,-87.6341878
CVS,3944 N WESTERN AVE,CHICAGO,60618,763,41.9534145,-87.6888557
CVS,8639 S CICERO AVE,CHICAGO,60652,1210,41.7354079,-87.7404953
CVS,1930 W 103RD ST,CHICAGO,60643,1431,41.7068556,-87.6700568
CVS,2815 N WESTERN AVE,CHICAGO,60618,1806,41.9327863,-87.6876193
CVS,3951 W 103RD ST,CHICAGO,60655,2208,41.7053701,-87.7202632
CVS,5205 N BROADWAY ST,CHICAGO,60640,1645,41.9768351,-87.6594058
CVS,101 N CLINTON ST,CHICAGO,60661,69,41.8834779,-87.6409314
CVS,344 W HUBBARD ST,CHICAGO,60654,2316,41.8901584,-87.6372584
CVS,4631 W FOSTER AVE,CHICAGO,60630,91,41.9750892,-87.7447789
CVS,25 E OHIO ST,CHICAGO,60611,64,41.8921904,-87.6270447
CVS,2650 N CLARK ST,CHICAGO,60614,447,41.931188,-87.6446377
DAVID R BUYER MD,1611 W HARRISON ST,CHICAGO,60612,1485,41.8734283,-87.6670139
DAVITA KENWOOOD,4259 S COTTAGE GROVE AVE STE 100,CHICAGO,60653,740,41.8171985,-87.6063805
DAVITA LOGAN SQUARE,2838 N KIMBALL AVE,CHICAGO,60618,211,41.9331374,-87.7128743
DAVITA WEST LAWN,7000 S PULASKI RD,CHICAGO,60629,432,41.7653788,-87.7235724
DEVON MEDICAL CENTER,2321 W DEVON AVE,CHICAGO,60659,175,41.9976026,-87.6883812
DOCTOR'S OFFICE,5751 W BELMONT AVE,CHICAGO,60634,373,41.9381503,-87.7708262
DOCTORS TEST CENTERS,20 W ONTARIO ST,CHICAGO,60654-3809,1221,41.8935281,-87.6289533
DR MOK'S MEDICAL CLINIC,3535 W LAWRENCE AVE,CHICAGO,60625-5627,641,41.9681827,-87.7171829
EDEN HEALTH,131 S DEARBORN ST,CHICAGO,60603,169,41.8798602,-87.6289548
EHE HEALTH,222 W ADAMS ST,CHICAGO,60606,359,41.8794972,-87.634713
ELISABETH WALLNER MD,676 N ST CLAIR ST,CHICAGO,60611,2,41.8945986,-87.622954
ELSDON MEDICAL PHARMACY,4254 W 55TH ST,CHICAGO,60632,245,41.7933997,-87.7302671
EMPATIA CARE ON CENTRAL,3929 N CENTRAL AVE STE 2,CHICAGO,60634,259,41.9520767,-87.766627
ENGLEWOOD MEDICAL CLINIC,6508 S HALSTED ST,CHICAGO,60621,71,41.7757768,-87.6448904
ENGLEWOOD PEDIATRICS,6307 S STEWART AVE,CHICAGO,60621,71,41.7796602,-87.634139
ERIE AMUNDSEN SCH BASE HLTH CTR,5110 N DAMEN AVE,CHICAGO,60625,4,41.9750696,-87.6800719
ERIE CLEMENTE HEALTH CENTER,1147 N WESTERN 2 FLR HLTH CTR,CHICAGO,60622,4,41.9025046,-87.6868445
ERIE DIVISION HEALTH CENTER,2418 W DIVISION ST,CHICAGO,60622,6015,41.9033647,-87.6877703
ERIE FAMILY HEALTH CENTER INACTIVE,215 W OHIO ST,CHICAGO,60654,22097,41.892156,-87.6347945
ERIE FOSTER AVE,5215 N CALIFORNIA AVE # 7,CHICAGO,60625,15597,41.9762513,-87.6985927
ERIE HELPING HANDS,4747 N KEDZIE AVE,CHICAGO,60625,3771,41.9679947,-87.708321
ERIE HUMBOLDT PARK,2750 W NORTH AVE,CHICAGO,60647,5563,41.9104556,-87.69667
ERIE JOHNSON,1504 S ALBANY AVE REAR ENTRANCE,CHICAGO,60623,1032,41.8611316,-87.7034441
ERIE TEEN CENTER,2418 W DIVISION ST,CHICAGO,60622,2165,41.9033647,-87.6877703
ERIE WEST SIDE AT RYERSON ELEMENTARY,646 N LAWNDALE HEALTH CLINIC ONLY,CHICAGO,60624,1175,41.8931035,-87.7195703
ESPERANZA HEALTH CENTERS BRIGHTON PARK,4700 S CALIFORNIA AVE,CHICAGO,60632,71823,41.8081443,-87.6945203
ESPERANZA HEALTH CENTERS CALIFORNIA,2001 S CALIFORNIA AVE,CHICAGO,60608,12107,41.8546526,-87.6953253
ESPERANZA HEALTH CENTERS LITTLE VILLAGE,3059 W 26TH ST,CHICAGO,60623,8407,41.844073,-87.7019427
ESPERANZA HEALTH CENTERS MARQUETTE,6550 S RICHMOND ST,CHICAGO,60629,15689,41.7745537,-87.697359
FAMILY CARE ASSOCIATES,6187 S ARCHER AVE,CHICAGO,60638,1244,41.7936274,-87.7737966
FAMILY CARE ASSOCIATES LTD,4438 N MILWAUKEE AVE,CHICAGO,60630,1557,41.9616976,-87.7556544
FAMILY DOCTOR IRVING,1918 W IRVING PARK RD,CHICAGO,60613,2507,41.9543994,-87.6771219
FAMILY DOCTOR STONY ISLAND,7201 S STONY ISLAND AVE,CHICAGO,60649,3430,41.7638603,-87.5856779
FAMILY DOCTORS/FAMILY HEALTHCARE,6201 W TOUHY AVE,CHICAGO,60646,2954,42.0117451,-87.7820979
FAMILY DOCTORS/FAMILY HEALTHCARE,5240 N PULASKI RD STE J,CHICAGO,60630,2081,41.9768582,-87.7289303
FAMILY MEDICAL CARE,6322 N CICERO AVE,CHICAGO,60646,162,41.9964024,-87.7487221
FAMILY MEDICINE,3248 W NORTH AVE,CHICAGO,60647,352,41.9103065,-87.7087324
FAMILY PRACTICE CLINIC,5509 W MONTROSE AVE,CHICAGO,60641,28,41.9601721,-87.7652143
FIRST CHOICE OCCUPATIONAL HEALTH,6545 W ARCHER AVE,CHICAGO,60638,60,41.7920186,-87.7860366
FORUM EXTENDED CARE SERVICES,4201 W VICTORIA ST,CHICAGO,60646,2622,41.9843921,-87.7338686
FRESENIUS KIDNEY CARE ABERDEEN,215 S ABERDEEN ST,CHICAGO,60607,265,41.8785942,-87.6540683
FRESENIUS KIDNEY CARE AUSTIN,4800 W CHICAGO AVE,CHICAGO,60651,33,41.8953175,-87.7461878
FRESENIUS KIDNEY CARE BRIDGEPORT,825 W 35TH ST,CHICAGO,60609,80,41.8303568,-87.6471297
FRESENIUS KIDNEY CARE CHATHAM,8710 S HOLLAND RD,CHICAGO,60620,34,41.7355279,-87.6329147
FRESENIUS KIDNEY CARE CHICAGO DIALYSIS CENTER,1806 W. HUBBARD ST.,CHICAGO,60622,60,41.8903306,-87.6723725
FRESENIUS KIDNEY CARE CHICAGO WESTSIIDE,1340 S DAMEN AVE,CHICAGO,60608,94,41.8635662,-87.676373
FRESENIUS KIDNEY CARE ENGLEWOOD,946 W 63RD ST,CHICAGO,60621,22,41.7799148,-87.6492843
FRESENIUS KIDNEY CARE GARFIELD,5401 S WENTWORTH AVE,CHICAGO,60609,4,41.7957561,-87.6303028
FRESENIUS KIDNEY CARE GREENWOOD,1111 E 87TH ST,CHICAGO,60619,98,41.7363749,-87.5965725
FRESENIUS KIDNEY CARE JACKSON PARK,7531 S STONY ISLAND AVE,CHICAGO,60649-3954,201,41.757506,-87.5849183
FRESENIUS KIDNEY CARE LAKEVIEW JV,4008 N BROADWAY ST,CHICAGO,60613,18,41.9548207,-87.6510501
FRESENIUS KIDNEY CARE LOGAN SQUARE,2721 N SPAULDING AVE,CHICAGO,60647,58,41.9308128,-87.7105732
FRESENIUS KIDNEY CARE MARQUETTE PARK,6535 S WESTERN AVE,CHICAGO,60636,19,41.774633,-87.6830372
FRESENIUS KIDNEY CARE MIDWAY,6201 W 63RD ST,CHICAGO,60638,70,41.7774858,-87.7766023
FRESENIUS KIDNEY CARE NEW CITY,4616 S BISHOP ST,CHICAGO,60609,12,41.8098864,-87.6616798
FRESENIUS KIDNEY CARE NORTH KILPATRICK,4800 N KILPATRICK AVE,CHICAGO,60630,213,41.9682128,-87.7459986
FRESENIUS KIDNEY CARE NORTHCENTER,2620 W ADDISON ST,CHICAGO,60618,45,41.9474681,-87.6936188
FRESENIUS KIDNEY CARE NORTHWESTERN,710 N FAIRBANKS CT,CHICAGO,60611,46,41.8954486,-87.6208506
FRESENIUS KIDNEY CARE PRAIRE,1717 S WABASH AVE,CHICAGO,60616,312,41.8586473,-87.6251869
FRESENIUS KIDNEY CARE ROGERS PARK,2277 W HOWARD ST,CHICAGO,60645,194,42.0193125,-87.6873096
FRESENIUS KIDNEY CARE ROSELAND,132 W 111TH ST,CHICAGO,60628,100,41.6927868,-87.6271175
FRESENIUS KIDNEY CARE SOUTH CHICAGO,9200 S SOUTH CHICAGO AVE,CHICAGO,60617,220,41.7278858,-87.5533754
FRESENIUS KIDNEY CARE SOUTH DEERING,10559 S TORRENCE AVE,CHICAGO,60617,69,41.703008,-87.5592841
FRESENIUS KIDNEY CARE SOUTH SHORE,2420 E 79TH ST,CHICAGO,60649,97,41.7519017,-87.5653441
FRESENIUS KIDNEY CARE SOUTHSIDE DIALYSIS CENTER,3134 W 76TH ST,CHICAGO,60652,82,41.7555847,-87.7019042
FRESENIUS KIDNEY CARE UPTOWN,4700 N MARINE DR STE 204,CHICAGO,60640,120,41.967677,-87.649669
FRESENIUS KIDNEY CARE WEST BELMONT,4943 W BELMONT AVE,CHICAGO,60641,21,41.9385684,-87.7506912
FRESENIUS KIDNEY CARE WEST METRO,1044 N MOZART ST,CHICAGO,60622,124,41.9006786,-87.6996714
FRESENIUS KIDNEY CARE WEST WILLOW,1444 W WILLOW ST,CHICAGO,60642,16,41.9143165,-87.6634756
FRIEND HEALTH 51ST ST,340 E 51ST ST,CHICAGO,60615,316,41.8023895,-87.6176925
FRIEND HEALTH ASHLAND,4802 S ASHLAND AVE,CHICAGO,60609,318,41.806512,-87.665293
FRIEND HEALTH COTTAGE GROVE,800 E 55TH ST,CHICAGO,60615,11841,41.7955732,-87.6054848
FRIEND HEALTH PULASKI,5635 S PULASKI RD # 2,CHICAGO,60629,4763,41.7901824,-87.7226874
FRIEND HEALTH WESTERN,5843 S WESTERN AVE,CHICAGO,60636,461,41.7871501,-87.6832676
FRIEND HEALTH WOODLAWN,1522 E 63RD ST,CHICAGO,60637,577,41.7808244,-87.5881795
FRONTIER HEALTHCARE SYSTEMS,8741 S GREENWOOD AVE,CHICAGO,60619,120,41.7354833,-87.5966883
GALILEE MEDICAL CENTER,4200 W 63RD ST,CHICAGO,60629,718,41.7789097,-87.7281126
GARCIA MEDICAL CENTER,3538 W FULLERTON AVE,CHICAGO,60647,644,41.9249335,-87.7162033
GENOA HEALTHCARE ARCHER,4327 S ARCHER AVE,CHICAGO,60632,49,41.8147973,-87.7024936
GENOA HEALTHCARE CHICAGO RAVENSWOOD,4423 N RAVENSWOOD AVE,CHICAGO,60640,53,41.9622476,-87.6737576
GENOA HEALTHCARE CLARK,4740 N CLARK ST,CHICAGO,60640,655,41.9680479,-87.6677083
GENOA HEALTHCARE N BROADWAY,5710 N BROADWAY ST STE P,CHICAGO,60660,702,41.9859339,-87.6604635
GRAND VEIN SPECIALISTS,4952 W IRVING PARK RD,CHICAGO,60641,1505,41.9536116,-87.7516955
GREATER LAWN WICFAST TRACK CLINIC,4150 W 55TH ST,CHICAGO,60632,294,41.7933466,-87.7276788
H&S HEALTH SPECIALISTS FAMILY URGENT CARE,1631 N HALSTED ST,CHICAGO,60614,477,41.9118397,-87.6480459
HAMDARD HEALTH CENTER CHICAGO,1542 W DEVON AVE,CHICAGO,60660,2937,41.9983455,-87.669633
HARPER HEALTH,737 N MICHIGAN AVE STE 2020,CHICAGO,60611-6749,405,41.8960333,-87.6236945
HCH COVID CLINIC,2701 W 68TH ST,CHICAGO,60629,1736,41.7690386,-87.6927027
HEALTH DIRECTION MEDICAL CENTER,4959 W BELMONT AVE,CHICAGO,60641-4332,1751,41.9385075,-87.7515372
HEALTHCARE FOR THE WHOLE FAMILY,2222 W DIVISION ST STE 260,CHICAGO,60622,973,41.9034224,-87.6831819
HEARTLAND ALLIANCE HEALTH ENGLEWOOD,5501 S HALSTED ST,CHICAGO,60621,2572,41.793686,-87.644825
HEARTLAND ALLIANCE HEALTH UPTOWN,1015 W LAWRENCE AVE,CHICAGO,60640,5071,41.9689469,-87.6553926
HEARTLAND HEALTH CENTER ALBANY PARK,3737 W LAWRENCE AVE,CHICAGO,60625,2982,41.9680505,-87.7222307
HEARTLAND HEALTH CENTER DEVON,1300 W DEVON AVE,CHICAGO,60660,8172,41.9984115,-87.6634397
HEARTLAND HEALTH CENTER GALE ELEMENTARY,1631 W JONQUIL TER,CHICAGO,60626,5,42.0208548,-87.6712917
HEARTLAND HEALTH CENTER HIBBARD ELEM,4930 N SAWYER # DOOR 3,CHICAGO,60625,185,41.9708349,-87.7102296
HEARTLAND HEALTH CENTER JAMES WEST,932 W WASHINGTON BLVD,CHICAGO,60607,525,41.8832588,-87.651281
HEARTLAND HEALTH CENTER KILMER,6700 N GREENVIEW AVE,CHICAGO,60626,42,42.0041643,-87.6684218
HEARTLAND HEALTH CENTER LAKEVIEW,3048 N WILTON AVE,CHICAGO,60657,115,41.9377382,-87.6530707
HEARTLAND HEALTH CENTER LINCOLN SQUARE,2645 W LAWRENCE AVE,CHICAGO,60625,1342,41.9682666,-87.6959369
HEARTLAND HEALTH CENTER ROGERS PARK,2200 W TOUHY AVE,CHICAGO,60645,105,42.0124315,-87.6864026
HEARTLAND HEALTH CENTER ROOSEVELT HS,3435 W LELAND AVE # DOOR 4,CHICAGO,60625,16,41.9665789,-87.7141404
HEARTLAND HEALTH CENTER SENN HS,5900 N GLENWOOD AVE,CHICAGO,60660,21,41.9890422,-87.6668207
HEARTLAND HEALTH CENTER SULLIVAN HS,6631 N BOSWORTH AVE,CHICAGO,60626,3,42.0028084,-87.6689166
HEARTLAND HEALTH CENTER THRESHOLDS,4423 N RAVENSWOOD AVE,CHICAGO,60640,303,41.9622476,-87.6737576
HEARTLAND HEALTH CENTER TRILOGY,1400 W GREENLEAF AVE,CHICAGO,60626,133,42.0105414,-87.6665207
HEARTLAND HEALTH CENTER WILSON,845 W WILSON AVE,CHICAGO,60640,152,41.9652111,-87.6520221
HEARTLAND YOUTH AND RES SERV / CRC,3500 S GILES AVE,CHICAGO,60653,20,41.8306121,-87.6196385
HEARTLAND YOUTH AND RES SERV / ICC,1620 W CHASE AVE,CHICAGO,60626,2,42.0140952,-87.6709946
HEARTLAND YOUTH AND RES SERV/ICCB,1209 W 98TH ST,CHICAGO,60643,4,41.7155655,-87.6533339
HERMOSA MEDICAL CENTER,2004 N PULASKI RD,CHICAGO,60639,1485,41.9173577,-87.7267991
HOWARD BROWN HEALTH 55TH ST,1525 E 55TH ST,CHICAGO,60615,69,41.7950738,-87.5879694
HOWARD BROWN HEALTH 63RD ST,641 W 63RD ST,CHICAGO,60621,181,41.7795169,-87.6413809
HOWARD BROWN HEALTH BROADWAY YOUTH CENTER,4009 N BROADWAY ST,CHICAGO,60613-2110,100,41.9549894,-87.6504745
HOWARD BROWN HEALTH CORE,6500 N CLARK ST,CHICAGO,60626,29184,41.9999713,-87.6715977
HOWARD BROWN HEALTH HALSTED,3245 N HALSTED ST,CHICAGO,60657,3532,41.9412596,-87.6490579
HOWARD BROWN HEALTH LA CASA NORTE,3533 W NORTH AVE,CHICAGO,60647-7573,80,41.9098152,-87.71578
HOWARD BROWN HEALTH SHERIDAN,4025 N SHERIDAN RD,CHICAGO,60613,28487,41.9551883,-87.6541817
HOWARD BROWN ROGERS PARK,6500 N CLARK ST,CHICAGO,60626,8913,41.9999713,-87.6715977
HPH COMMUNITY CLINIC,1044 N MOZART ST,CHICAGO,60622,17311,41.9006786,-87.6996714
HUMBOLDT PARK HEALTH PRIMARY CARE,1044 N MOZART ST STE 100,CHICAGO,60622,2970,41.9006786,-87.6996714
IDEAL MEDICAL CENTER,2600 S MICHIGAN AVE STE 310,CHICAGO,60616-2860,577,41.8454116,-87.6240977
ILLINOIS YOUTH CENTER OF CHICAGO,136 N WESTERN AVE,CHICAGO,60612,271,41.8837092,-87.687753
IMAN HEALTH CLINIC,2744 W 63RD ST,CHICAGO,60629-2343,2724,41.779335,-87.6928182
INFANT WELFARE SOCIETY OF CHICAGO,3600 W FULLERTON AVE,CHICAGO,60647,4749,41.924896,-87.7173018
INNOVATIVE EXPRESS CARE ASHLAND,2400 N ASHLAND AVE,CHICAGO,60614,3336,41.9253097,-87.6684047
INNOVATIVE EXPRESS CARE DIVERSEY,1111 W DIVERSEY PKWY,CHICAGO,60614,24481,41.9323071,-87.6563384
INSIGHT HEALTHCARE,3401 N KNOX AVENUE,CHICAGO,60641-,4789,41.9428213,-87.7425337
INSTAVAXX LLC,2674 N HALSTED ST,CHICAGO,60614-2361,13287,41.9312167,-87.6491303
INTERNAL MEDICINE & PRIMARY CARE,2551 N CLARK ST,CHICAGO,60614,20,41.9292749,-87.6423505
INTERNAL MEDICINE ASSOCIATES,676 N SAINT CLAIR ST,CHICAGO,60611,20,41.8945986,-87.622954
J C REYES PEDIATRICS S.C.,6649 W ARCHER AVE STE 400,CHICAGO,60638-2553,686,41.7919392,-87.7886259
JACKSON PARK HOSPITAL,1625 E 75TH ST,CHICAGO,60649,3838,41.7584766,-87.5848797
JAIMES MEDICAL GROUP,3153 W FULLERTON AVE,CHICAGO,60647,501,41.9245281,-87.7065236
JALAL RAIS DANA MD,2315 W BELMONT AVE,CHICAGO,60618-6422,49,41.9392509,-87.6863351
JENCARE EVERGREEN,2734 W 87TH ST,CHICAGO,60652,1674,41.7356532,-87.6912629
JENCARE SOUTH CHICAGO,2231 E 95TH ST,CHICAGO,60617,1739,41.722326,-87.569065
JEWEL-OSCO,1655 E 95TH ST,CHICAGO,60617,2939,41.7203054,-87.5829113
JEWEL-OSCO,11730 S MARSHFIELD AVE,CHICAGO,60643,6004,41.6802421,-87.6646
JEWEL-OSCO,1340 S CANAL ST,CHICAGO,60607,4824,41.8644092,-87.639809
JEWEL-OSCO,3630 N SOUTHPORT AVE,CHICAGO,60613-3710,3069,41.9479684,-87.664356
JEWEL-OSCO,424 W DIVISION ST,CHICAGO,60610,2732,41.9051008,-87.6395518
JEWEL-OSCO,1763 W HOWARD ST,CHICAGO,60626,5481,42.0174366,-87.6746023
JEWEL-OSCO,3531 N BROADWAY ST,CHICAGO,60657-1825,3159,41.9468947,-87.6462414
JEWEL-OSCO,3572 N ELSTON AVE,CHICAGO,60618-4318,5208,41.945116,-87.708555
JEWEL-OSCO,4734 N CUMBERLAND AVE,CHICAGO,60656-4239,4017,41.9655231,-87.8379378
JEWEL-OSCO,4355 N SHERIDAN RD,CHICAGO,60613-1414,3010,41.9612641,-87.6531681
JEWEL-OSCO,4032 W FOSTER AVE,CHICAGO,60630-2747,4525,41.9755257,-87.7293998
JEWEL-OSCO,5532 N CLARK ST,CHICAGO,60640,4868,41.9827089,-87.6691608
JEWEL-OSCO,5345 N BROADWAY ST,CHICAGO,60640-2311,2725,41.9794891,-87.6594745
JEWEL-OSCO,370 N DESPLAINES ST,CHICAGO,60661-1106,3973,41.8886842,-87.6451007
JEWEL-OSCO,2520 N NARRAGANSETT AVE,CHICAGO,60639-1041,5428,41.926128,-87.7863248
JEWEL-OSCO,1224 S WABASH AVE,CHICAGO,60605-2401,5016,41.8661978,-87.6261945
JEWEL-OSCO,1220 S ASHLAND AVE,CHICAGO,60608-1402,2985,41.8659082,-87.6686175
JEWEL-OSCO,4660 W IRVING PARK RD,CHICAGO,60641-2888,5281,41.9553877,-87.7447755
JEWEL-OSCO,101 W 87TH ST,CHICAGO,60620-1304,2414,41.7352139,-87.6278163
JEWEL-OSCO,9402 S ASHLAND AVE,CHICAGO,60620,3598,41.7229955,-87.6634363
JEWEL-OSCO,5324 S PULASKI RD,CHICAGO,60632-4224,5391,41.7954721,-87.7248641
JEWEL-OSCO,6014 S COTTAGE GROVE AVE,CHICAGO,60637,4016,41.7844842,-87.6073205
JEWEL-OSCO,3644 S ARCHER AVE,CHICAGO,60609,5018,41.8278613,-87.6826921
JEWEL-OSCO,2550 N CLYBOURN AVE,CHICAGO,60614,2501,41.9273344,-87.6746008
JEWEL-OSCO,1343 N PAULINA ST,CHICAGO,60622,3605,41.9067215,-87.6696308
JEWEL-OSCO,3400 N WESTERN AVE,CHICAGO,60618,2837,41.9434454,-87.6900084
JEWEL-OSCO,7530 S STONY ISLAND AVE,CHICAGO,60649,5800,41.758262,-87.5876199
JEWEL-OSCO,6107 S ARCHER AVE,CHICAGO,60638-2743,6342,41.7939489,-87.7703373
JEWEL-OSCO,2940 N ASHLAND AVE,CHICAGO,60657-4004,5350,41.9353042,-87.6702904
JEWEL-OSCO,6426 W IRVING PARK RD,CHICAGO,60634-2459,5174,41.9538197,-87.7876637
JEWEL-OSCO,7342 W FOSTER AVE,CHICAGO,60656-3600,4821,41.9754649,-87.8109866
JOAN DACHS BAIS YAAKOV ELEMENTARY,3200 W PETERSON AVE,CHICAGO,60659-,10255,41.9909906,-87.710094
KATSANOS PHARMACY,1521 E 53RD ST,CHICAGO,60615,59,41.7994236,-87.5882723
KHUDEIRA MEDICAL CENTER,8071 S CICERO AVE,CHICAGO,60652-2003,427,41.7457549,-87.7403649
KIDZ HEALTH,4655 N ELSTON,CHICAGO,60630,152,41.965799,-87.7364414
KINDRED CHICAGO CENTRAL,4058 W MELROSE ST,CHICAGO,60641,228,41.9401282,-87.7286699
KINDRED CHICAGO LAKESHORE,6130 N SHERIDAN RD,CHICAGO,60660,205,41.9935783,-87.656066
KINDRED HOSPITAL CHICAGO NORTH,2544 W MONTROSE AVENUE,CHICAGO,60618,499,41.9615835,-87.6928871
KOMED HOLMAN HEALTH CENTER,4259 S BERKELEY AVE,CHICAGO,60653,3294,41.8171246,-87.6001608
KOSTNER & NORTH HEALTH CENTER,1520 N KOSTNER AVE,CHICAGO,60651,36,41.908507,-87.7367404
LA RABIDA CHILDREN'S HOSPITAL,6501 S PROMONTORY DR,CHICAGO,60649,1195,41.7774249,-87.5714853
LAKEFRONT MEDICAL ASSOCIATES,4700 N MARINE DR,CHICAGO,60640,22,41.967677,-87.649669
LAKEVIEW PEDIATRICS,1333 W BELMONT AVE STE 310,CHICAGO,60657,80,41.9395255,-87.6623445
LAWNDALE CHRISTIAN BREAKTHROUGH,3219 W CARROLL AVE,CHICAGO,60624,18,41.8871459,-87.7071779
LAWNDALE CHRISTIAN FARRAGUT,3256 W 24 DELIV TO HLTH CTR ONLY,CHICAGO,60623,2,41.8483458,-87.7084727
LAWNDALE CHRISTIAN HOMAN,3517 W ARTHINGTON ST,CHICAGO,60624,9,41.8692014,-87.7134139
LAWNDALE CHRISTIAN ODGEN,3860 W OGDEN AVE,CHICAGO,60623,40026,41.852495,-87.7219686
LAWRENCE HALL YOUTH SERVICES,4833 N. FRANCISCO AVE,CHICAGO,60625-,189,41.9694335,-87.7000949
LCPC HL TOWN & COUNTRY,1460 N HALSTED ST,CHICAGO,60642,98,41.9082213,-87.6483766
LCPC HL TOWN & COUNTRY,6374 N LINCOLN AVE,CHICAGO,60659,144,41.997,-87.718692
LIFESAVER HEALTHCARE,7929 S YATES BLVD,CHICAGO,60617,648,41.7507589,-87.5658951
LIFETIME MEDICAL ASSOCIATES,1645 W JACKSON BLVD STE 215,CHICAGO,60612,247,41.877253,-87.6684147
LINCOLN PEDIATRIC CENTER,5641 N LINCOLN AVE,CHICAGO,60659,838,41.9840836,-87.6964349
LINCOLN SQUARE MEDICAL CENTER,2501 W LAWRENCE AVE,CHICAGO,60625,1052,41.9682292,-87.6917442
LOC SUBSPECIALTY MED,LOC SMED SURGERY,CHICAGO,60611,160,41.8959995,-87.6238055
LOCAL HEALTH PHARMACY,2545 W DIVERSEY AVE,CHICAGO,60647,1148,41.9316015,-87.6921993
LOOP MEDICAL CENTER,1921 S MICHIGAN AVE,CHICAGO,60616,2084,41.8560801,-87.6236861
LORETTO HOSPITAL,645 S. CENTRAL,CHICAGO,60644,27257,41.8721272,-87.7636486
LOUISE LANDAU HEALTH CENTER,800 N KEDZIE AVE STE 104,CHICAGO,60651,1584,41.896233,-87.7080247
LURIE ACADEMIC GENERAL PEDIATRIC,467 W DEMING PL,CHICAGO,60614,92,41.9287173,-87.6415788
MARIANOS,3857 S KING DR,CHICAGO,60653,2361,41.8244012,-87.6160177
MARIANOS,3030 N BROADWAY ST STE 10,CHICAGO,60657-7472,3076,41.9372878,-87.6447527
MARIANOS,1500 N CLYBOURN AVE UNIT C104,CHICAGO,60610-2295,4603,41.9081984,-87.6464058
MARIANOS,2021 W CHICAGO AVE,CHICAGO,60622-5549,2515,41.8954828,-87.6783
MARIANOS,5201 N SHERIDAN RD,CHICAGO,60640-2512,2343,41.9767976,-87.6545667
MARIANOS,3145 S ASHLAND AVE,CHICAGO,60608-6251,2983,41.8365505,-87.6637921
MARIANOS,2112 N ASHLAND AVE,CHICAGO,60608,2526,41.920714,-87.6690596
MARIANOS,1800 W LAWRENCE AVE,CHICAGO,60640-4002,2538,41.9694273,-87.6751072
MARIANOS,5353 N ELSTON AVE,CHICAGO,60630-1610,2547,41.9794656,-87.7574203
MAX CARE PHARMACY,2810 W DEVON AVE,CHICAGO,60659,668,41.9976761,-87.7001612
MD AT HOME,1100 W CERMAK RD,CHICAGO,60608,228,41.8527225,-87.6537184
MED/PED MEDICAL CENTER,5939 W DIVERSEY AVE,CHICAGO,60639,6,41.9309856,-87.775065
MEDICINA GENERAL,2403 S OAKLEY AVE,CHICAGO,60608,484,41.8482893,-87.6829029
MERCY HOSPITAL AND MEDICAL CENTER,2525 S MICHIGAN AVE,CHICAGO,60616,2830,41.8465767,-87.6214331
MERCY PHILLIPS HEALTH CLINIC SBHC,244 E. PERSHING RD BASEMENT HEALTH CENTER,CHICAGO,60653,546,41.8241194,-87.6197645
METHODIST HOSPITAL,5025 N PAULINA ST,CHICAGO,60640,2399,41.9732053,-87.6708136
METRO INFECTIOUS DISEASE CONSULTANTS,2923 N CALIFORNIA AVE STE 220,CHICAGO,60618,1669,41.9346705,-87.6973347
METRO INFECTIOUS DISEASE CONSULTANTS CHICAGO NOMI,180 N MICHIGAN AVE STE 2220,CHICAGO,60601,32,41.8855111,-87.6248891
MEXICARE PHARMACY,3200 W 26TH ST,CHICAGO,60623,2859,41.8446483,-87.7052438
MICHIGAN AVENUE INTERNISTS,200 S MICHIGAN AVE,CHICAGO,60604,102,41.8793168,-87.6249224
MICHIGAN AVENUE PRIMARY CARE / IMMEDIATE CARE,180 N MICHIGAN AVE,CHICAGO,60601,7470,41.8855217,-87.624882
MIDWAY PEDIATRICS,4254 W 55TH ST,CHICAGO,60632,862,41.7933997,-87.7302671
MILE SQUARE HEALTH CENTER BACK OF THE YARDS,4630 S BISHOP ST,CHICAGO,60609,7813,41.809541,-87.6617735
MILE SQUARE HEALTH CENTER DAVIS,3050 W 39TH PL,CHICAGO,60632,291,41.8221817,-87.7016348
MILE SQUARE HEALTH CENTER DRAKE,2710 S DEARBORN ST RM 123A,CHICAGO,60616,117,41.8434037,-87.6286981
MILE SQUARE HEALTH CENTER ENGLEWOOD,641 W 63RD ST,CHICAGO,60621,7820,41.7795169,-87.6413809
MILE SQUARE HEALTH CENTER HUMBOLDT PARK,3240 W DIVISION ST,CHICAGO,60651-2405,4540,41.903042,-87.7083904
MILE SQUARE HEALTH CENTER MAIN,1220 S WOOD ST # 2,CHICAGO,60608,921,41.866375,-87.6720543
MILE SQUARE HEALTH CENTER SOUTH SHORE,7037 S STONY ISLAND AVE,CHICAGO,60649,748,41.7668403,-87.5853815
MILE SQUARE HEALTH ENGLEWOOD HEALTH AND WELLNESS,6835 S. NORMAL BLVD DOOR #2,CHICAGO,60621,143,41.7702519,-87.6368723
"MILLENNIUM PARK MEDICAL ASSOCIATES, SC",30 S MICHIGAN AVE,CHICAGO,60603,802,41.8811752,-87.6248481
MIRSHED MEDICAL CENTER,4255 W 63RD ST,CHICAGO,60629,300,41.7783169,-87.7298026
MJ MEDICAL GROUP,6326 N LINCOLN AVE,CHICAGO,60659,368,41.9961375,-87.7172882
MOBILE CARE CHICAGO,239 W ROOT ST,CHICAGO,60609,657,41.8188864,-87.6327876
MOBILEVAX,222 W ONTARIO ST,CHICAGO,60654,17859,41.8934011,-87.6350946
MOUNT SINAI HOSPITAL,CALIFORNIA AVE AT 15TH ST,CHICAGO,60608,9291,41.8601272,-87.6957082
MUNOZ MD & CVENGROS MD SC,2800 N SHERIDAN RD,CHICAGO,60657,284,41.9331736,-87.6398818
NAVA SEGALL MD SC,4116 N LINCOLN AVE,CHICAGO,60618,1965,41.9563855,-87.6807318
NE HEALTHCARE SERVICES,2619 W ARMITAGE AVE,CHICAGO,60647-4208,388,41.9173849,-87.6931393
"NEEL FRENCH, MD, SC",2551 N CLARK ST,CHICAGO,60614,263,41.9292749,-87.6423505
NEW CITY HALSTED PHARMACY,1460 N HALSTED ST STE 101,CHICAGO,60642,63,41.9081593,-87.648513
NEW LIFE MEDICAL CENTER,1666 N CALIFORNIA AVE,CHICAGO,60647,96,41.9122005,-87.6972876
NMG - ALLERGY CLINIC,675 N SAINT CLAIR ST,CHICAGO,60611,109329,41.8946975,-87.6224687
NMG - CENTRAL OCCUPATIONAL HEALTH,676 N SAINT CLAIR ST,CHICAGO,60611,135,41.8945986,-87.622954
NMG - GENERAL INTERNAL MEDICINE,675 N SAINT CLAIR ST,CHICAGO,60611,134,41.8946975,-87.6224687
NMG - LAKEVIEW IMMEDIATE CARE CENTER,1333 W BELMONT AVE,CHICAGO,60657,76,41.9395255,-87.6623445
NMG - LAVIN INTERNAL MEDICINE,259 E ERIE ST,CHICAGO,60611,139,41.8936913,-87.620953
NMG - RIVER NORTH IMMEDIATE CARE,635 N DEARBORN ST,CHICAGO,60654,68,41.8935163,-87.6293196
NMG - SONO PEDIATRICS,1460 N HALSTED ST,CHICAGO,60642,194,41.9082213,-87.6483766
NMG - SOUTH LOOP IMMEDIATE CARE,1135 S DELANO CT E,CHICAGO,60605,30,41.8682329,-87.6320553
NMG - STREETERVILLE IMMEDIATE CARE,635 N FAIRBANKS CT,CHICAGO,60611,122,41.893714,-87.620042
NMG - WEST LOOP IMMEDIATE CARE,171 N ABERDEEN ST,CHICAGO,60607,52,41.8850715,-87.6542602
NORTHSHORE CLINICAL LABS,4751 N KEDZIE AVE,CHICAGO,60625,11598,41.9680956,-87.7081196
NORTHSHORE PEDIATRIC ASSOCIATES,6374 N LINCOLN AVE,CHICAGO,60659,3,41.997,-87.718692
NORTHWESTERN CHILDRENS PRACTICE,680 N LAKE SHORE DR,CHICAGO,60611-3054,2464,41.894531,-87.6166312
OAK STREET HEALTH ASHBURN,3348 W 87TH ST,CHICAGO,60652,3969,41.736346,-87.705964
OAK STREET HEALTH AVALON PARK,1715 E 95TH ST,CHICAGO,60617,5732,41.7204318,-87.5815218
OAK STREET HEALTH BRIGHTON PARK,4327 S ARCHER AVE,CHICAGO,60632,4497,41.8147973,-87.7024936
OAK STREET HEALTH BRONZEVILLE,4318 S STATE ST,CHICAGO,60609,4710,41.8157011,-87.6265695
OAK STREET HEALTH EDGEWATER,1541 W DEVON AVE,CHICAGO,60660,3091,41.9978797,-87.669556
OAK STREET HEALTH ENGELWOOD,850 W 63RD ST,CHICAGO,60621,34635,41.7802361,-87.6470912
OAK STREET HEALTH LITTLE VILLAGE,3010 W 26TH ST,CHICAGO,60623,4871,41.8448685,-87.7008967
OAK STREET HEALTH MADISON STREET,3433 W MADISON ST,CHICAGO,60624,4956,41.8805814,-87.7124103
OAK STREET HEALTH PORTAGE PARK,4848 W IRVING PARK RD,CHICAGO,60641,4266,41.9536304,-87.7492536
OCCUPATIONAL HEALTH SERVICES,2421 W LAWRENCE AVE UNIT C2,CHICAGO,60625-2911,202,41.9684804,-87.6898085
OFFICE OF BARBATO & ZBIEGIEN,7447 W TALCOTT AVE,CHICAGO,60631,85,41.9876662,-87.8145522
OFFICE OF BEATA DANEK,5545 N MILWAUKEE AVE,CHICAGO,60630,1400,41.9827465,-87.7737611
OFFICE OF COLETTE B GORDON,2800 N SHERIDAN RD,CHICAGO,60657,6,41.9331736,-87.6398818
OFFICE OF DAVID K ZICH,200 S MICHIGAN AVE,CHICAGO,60604,7,41.8793168,-87.6249224
OFFICE OF DR J WESLEY COOK,2001 W ADDISON ST,CHICAGO,60618,929,41.9465917,-87.6787352
OFFICE OF ERIC W TERMAN MD SC,211 E CHICAGO AVE STE 1700,CHICAGO,60611,248,41.8964798,-87.6226883
OFFICE OF EZEQUIEL MENDEZ MD,4121 S ARCHER AVE,CHICAGO,60632,33,41.818415,-87.6965998
OFFICE OF HARESH SAWLANI M.D. PC.,3445 N CENTRAL AVE UNIT C,CHICAGO,60634,4192,41.9435986,-87.7663677
OFFICE OF JANNETH JARAMILLO,2610 W DIVISION ST,CHICAGO,60622-2850,436,41.9031706,-87.6925102
OFFICE OF KRIS D MCGRATH,500 N MICHIGAN AVE,CHICAGO,60611,31,41.8912319,-87.6247108
OFFICE OF LAWRENCE A LINDEMAN MD SC,2255 W ROSCOE ST,CHICAGO,60618,68,41.9429255,-87.6855326
OFFICE OF M. CHAVEZ,1509 N WESTERN AVE,CHICAGO,60622,1,41.9088694,-87.6868025
OFFICE OF MARLA KUSHNER,2437 N SOUTHPORT AVE,CHICAGO,60614-2060,555,41.9257854,-87.663115
OFFICE OF OSCAR LINARES,2645 W 51ST ST,CHICAGO,60632,105,41.8007937,-87.6909071
OFFICE OF PATRICK J GALLAGHER,211 E CHICAGO AVE STE 1700,CHICAGO,60611,55,41.8964798,-87.6226883
OFFICE OF PRAVIN MUNIYAPPA,2525 S MICHIGAN AVE,CHICAGO,60616,2,41.8465767,-87.6214331
OFFICE OF ROBERT BUDZIAKOWSKI,5725 S ARCHER AVE,CHICAGO,60638,102,41.7965695,-87.7553055
OFFICE OF SAROJ K VERMA,10701 S EWING AVE,CHICAGO,60617,8,41.7007408,-87.5349879
OFFICE OF SEAN D O'CONNOR,211 E CHICAGO AVE STE 1700,CHICAGO,60611,453,41.8964798,-87.6226883
OFFICE OF SHIRLEY WONG,2335 S WENTWORTH AVE STE B,CHICAGO,60616,2083,41.8498593,-87.6317368
OFFICE OF SYEDA H ZAHEDI,1431 N WESTERN AVE,CHICAGO,60622,437,41.9075381,-87.6863494
OLIVO MEDICAL WELLNESS,2901 N CLYBOURN AVE,CHICAGO,60618,223,41.9346689,-87.680996
ONE MEDICAL GROUP,1931 N HALSTED ST,CHICAGO,60614,100,41.917109,-87.6482703
ONE MEDICAL GROUP FULTON MARKET,109 N ABERDEEN ST,CHICAGO,60607,897,41.883572,-87.6540535
ONE MEDICAL GROUP LINCOLN PARK,1931 N HALSTED ST,CHICAGO,60614,1462,41.917109,-87.6482703
ONE MEDICAL GROUP LOOP,181 W MADISON ST STE 3825,CHICAGO,60602,1210,41.8816326,-87.6333541
ONE MEDICAL GROUP RIVER NORTH,415 N LA SALLE DR STE 100,CHICAGO,60654,971,41.8896869,-87.6322525
ONE MEDICAL GROUP WICKER PARK,1640 N DAMEN AVE,CHICAGO,60647,6697,41.9118326,-87.6777663
OSF MEDICAL GROUP HALSTED,736 W 95TH ST,CHICAGO,60628,1024,41.7217292,-87.6422731
OSF MEDICAL GROUP MT GREENWOOD KEDZIE,10961 S KEDZIE AVE,CHICAGO,60655,91,41.6934265,-87.7005954
OTERO MEDICAL CENTER,4911 W FULLERTON AVE,CHICAGO,60639,22,41.9239191,-87.749245
PASSPORT ENTERPRISES LOOP,30 N MICHIGAN AVE,CHICAGO,60602,1622,41.8829547,-87.6247085
PCC AUSTIN FAMILY HEALTH CENTER,5425 W LAKE ST,CHICAGO,60644,3273,41.887012,-87.7615316
PCC COMMUNITY WELLNESS SALUD,5359 W FULLERTON AVE,CHICAGO,60639,5519,41.9237358,-87.7607652
PCC HEALTHCARE ALT SYSTEMS INC,4534 S WESTERN AVE,CHICAGO,60609,3,41.8109496,-87.6848164
PCC PARKSIDE FAMILY HEALTH CENTER,115 N PARKSIDE AVE,CHICAGO,60644,18,41.8827653,-87.766371
PCC THE BOULEVARD,3456 W FRANKLIN BLVD,CHICAGO,60624,12,41.8905679,-87.7134497
PCC WELLNESS CENTER AT STEINMETZ,3030 N MOBILE AVE,CHICAGO,60634,1968,41.935631,-87.784152
PCC WEST TOWN FAMILY HEALTH CENTER,1044 N MOZART ST,CHICAGO,60622,40,41.9006786,-87.6996714
PERSONALIZED CARE LLC,200 S MICHIGAN AVE,CHICAGO,60604,14,41.8793168,-87.6249224
PHARMACA INTEGRATIVE PHARMACY,2313 N LINCOLN AVE,CHICAGO,60614-4822,1051,41.924233,-87.646585
PHARMACY ONE PLUS,4753 N KEDZIE AVE,CHICAGO,60625,2130,41.9682172,-87.7083519
PHYSICIANS IMMEDIATE CARE ADAMS ST,600 W ADAMS ST,CHICAGO,60661-3604,1068,41.8794342,-87.6428922
PHYSICIANS IMMEDIATE CARE CICERO AVE,4211 N CICERO AVE,CHICAGO,60641,1319,41.9576998,-87.7470137
PHYSICIANS IMMEDIATE CARE CLYBOURN AVE,2077 N CLYBOURN AVE,CHICAGO,60614,1265,41.9194424,-87.6607524
PHYSICIANS IMMEDIATE CARE GARFIELD RIDGE,5300 S LONG AVE,CHICAGO,60638,364,41.7961545,-87.757873
PHYSICIANS IMMEDIATE CARE LINCOLN AVE,5961 N LINCOLN AVE STE 102,CHICAGO,60659,1289,41.9896223,-87.7054359
PHYSICIANS IMMEDIATE CARE MILWAUKEE AVE,1702 N MILWAUKEE AVE,CHICAGO,60647,1207,41.912163,-87.6807313
PHYSICIANS IMMEDIATE CARE N BROADWAY ST,6140 N BROADWAY ST,CHICAGO,60660,1470,41.993319,-87.6607799
PHYSICIANS IMMEDIATE CARE N WESTERN AVE,3909 N WESTERN AVE,CHICAGO,60618,1233,41.9525849,-87.6880435
PHYSICIANS IMMEDIATE CARE NORTH AVE,121 W NORTH AVE,CHICAGO,60610,1640,41.9109621,-87.6325776
PHYSICIANS IMMEDIATE CARE NORTHWEST,5228 N NORTHWEST HWY,CHICAGO,60630,1271,41.9754109,-87.7698376
PHYSICIANS IMMEDIATE CARE S STATE,811 S STATE ST # STB,CHICAGO,60605,1246,41.8713734,-87.6272322
PHYSICIANS IMMEDIATE CARE W DIVERSEY PKWY,933 W DIVERSEY PKWY,CHICAGO,60614,1112,41.9323542,-87.6528306
PILSEN COMMUNITY PEDIATRICS,2738 W CERMAK RD,CHICAGO,60608,3075,41.8521722,-87.6945602
PILSEN FAMILY HEALTH CENTER,1713 S ASHLAND AVE,CHICAGO,60608,782,41.8582426,-87.6657432
PREMIER URGENT CARE,1301 E 47TH ST,CHICAGO,60653,347,41.8094214,-87.5946625
PREMISE HEALTH WELLNESS CENTER,300 E RANDOLPH ST,CHICAGO,60601-,2,41.8849112,-87.6199485
PRIMARY CARE PROVIDERS OF CHICAGO,7447 W TALCOTT AVE,CHICAGO,60631,575,41.9876662,-87.8145522
PRIMECARE BELMONT CRAGIN,5635 W BELMONT AVE,CHICAGO,60634,3700,41.9382707,-87.7678516
PRIMECARE FULLERTON,3924 W FULLERTON AVE,CHICAGO,60647,1681,41.9247661,-87.7253616
PRIMECARE HAMLIN,1920 N HAMLIN AVE RM 101,CHICAGO,60647,69,41.9159713,-87.7224181
PRIMECARE NORTHWEST,1649 N PULASKI RD,CHICAGO,60639,3398,41.9113761,-87.7261311
PRIMECARE WEST TOWN,1431 N WESTERN AVE STE 406,CHICAGO,60622,1896,41.907545,-87.6863973
PRIMECARE WICKER PARK,1127 N OAKLEY BLVD FL 2,CHICAGO,60622,1593,41.9016927,-87.6841181
PRIMECARE YOUNG FAMILY HEALTH CENTER,1431 N WESTERN AVE STE 101 STE 101,CHICAGO,60622,433,41.9075381,-87.6863494
PRISM HEALTH PETERSON,2322 W PETERSON AVE,CHICAGO,60659-5203,6368,41.990778,-87.688626
PRISM HEALTH S WENTWORTH,2100 S WENTWORTH AVE,CHICAGO,60616-1520,4098,41.8538193,-87.6321831
PROGRESSHEALTH,1500 S FAIRFIELD AVE,CHICAGO,60608,1153,41.8608329,-87.6945942
PROGRESSIVE CARE FOR WOMEN,676 N SAINT CLAIR ST,CHICAGO,60611,250,41.8945986,-87.622954
RAPHAEL MEDICAL SERVICES,6307 S STEWART AVE STE 305,CHICAGO,60621,224,41.7796602,-87.634139
RAVENSWOOD PEDIATRICS-OCHS,1945 W WILSON AVE,CHICAGO,60640,79,41.9648205,-87.6785311
REAVIS SCHOOL BASED HEALTH CENTER,834 E 50TH ST,CHICAGO,60615,3,41.8043913,-87.6054481
RIDGE MEDICAL CENTER,7133 N RIDGE BLVD,CHICAGO,60645,425,42.0122637,-87.6828114
RML SPECIALTY HOSPITAL,3435 W VAN BUREN ST,CHICAGO,60624,567,41.8752528,-87.7123067
ROGERS PARK FAMILY MEDICINE,2306 W TOUHY AVE,CHICAGO,60645-3474,190,42.0125611,-87.6879637
ROSELAND COMMUNITY HOSPITAL,45 W 111TH ST,CHICAGO,60628,35142,41.6922672,-87.6261192
RUSH PEDIATRIC PRIMARY CARE CENTER,1645 W. JACKSON BLVD,CHICAGO,60612,1753,41.8772608,-87.6683975
RUSH RIVER NORTH,539 N DEARBORN ST,CHICAGO,60654,14,41.8918965,-87.6294697
RUSH SOUTH LOOP,1411 S MICHIGAN AVE,CHICAGO,60605,131,41.8636963,-87.6238062
RUSH UNIVERSITY FAMILY PHYSICIANS,1700 W VAN BUREN ST,CHICAGO,60612,30,41.8765197,-87.6702458
RUSH UNIVERSITY MEDICAL CENTER,1620 W HARRISON ST,CHICAGO,60612,128870,41.8745459,-87.6681179
RUSH UNIVERSITY MEDICAL CENTER - INTERNAL MED,1725 W HARRISON ST,CHICAGO,60612,45,41.8729042,-87.6700558
RUSH UNIVERSITY MEDICAL CENTER INT MED,1700 W VAN BUREN ST,CHICAGO,60612,54,41.8765197,-87.6702458
RUSH/SIMPSON ACADEMY,1321 S. PAULINA,CHICAGO,60608,276,41.864572,-87.6681306
RUTH M ROTHSTEIN CORE CENTER,2020 W HARRISON ST,CHICAGO,60612,10717,41.8746423,-87.6771101
S&C ELECTRIC COMPANY,6601 N RIDGE BLVD,CHICAGO,60626,152,42.0021737,-87.6772215
SAH COMMUNITY CARE CLINIC,4177 S ARCHER AVE,CHICAGO,60632,2,41.8172654,-87.69843
SAHARA MEDICAL CENTER,2054 W DEVON AVE,CHICAGO,60659,56,41.9980872,-87.6822897
SAINT ANTHONY HOSPITAL,2875 W 19TH ST,CHICAGO,60623-3501,3968,41.8551341,-87.698365
SAINT ANTHONY HOSPITAL PHYSICIAN CENTER,2875 W 19TH ST FL 2,CHICAGO,60623,33694,41.855193,-87.6980038
SAINT JUDE MEDICAL CENTER,3943 W 31ST ST,CHICAGO,60623-4936,2049,41.8367124,-87.7236157
SALCEDO MEDICAL CENTER,3132 W NORTH AVE,CHICAGO,60647,623,41.910392,-87.7058114
SALUD LATINX,1952 W CERMAK RD,CHICAGO,60608,127,41.852338,-87.6754909
SEBY MEDICAL CENTER,10830 S HALSTED ST STE 3,CHICAGO,60628-3126,779,41.6967722,-87.6428128
SHERIDAN MEDICAL CENTER,840 W IRVING PARK RD,CHICAGO,60613-3011,199,41.954828,-87.6513786
SHIRLEY RYAN ABILITYLAB,355 E ERIE ST,CHICAGO,60611,4152,41.8939453,-87.6181751
SHRINERS HOSPITALS FOR CHILDREN CHICAGO,2211 N OAK PARK AVE,CHICAGO,60707,147,41.9198805,-87.7949334
SIDNEY HILLMAN HEALTH CENTER,333 S ASHLAND AVE # 4,CHICAGO,60607,2023,41.8765542,-87.6662069
SINAI CONVENIENT CARE,1859 S BLUE ISLAND AVE,CHICAGO,60608-3012,771,41.8562642,-87.662003
SINAI HEALTH SYSTEM ANTILLAS MEDICAL CENTER,3109 W ARMITAGE AVE,CHICAGO,60647,19843,41.9172132,-87.7057058
SINAI HEALTH SYSTEM LAWNDALE PLAZA,1108 S KEDZIE AVE,CHICAGO,60612,666,41.8679352,-87.7062939
SINAI HEALTH SYSTEM SOUTH STATE,5050 S STATE ST,CHICAGO,60609,1096,41.802781,-87.6265344
SIX CORNERS SAMEDAY SURGERY,4211 N CICERO AVE,CHICAGO,60641,106,41.9576998,-87.7470137
SMG CHICAGO LOCATION,4733 N DAMEN AVE,CHICAGO,60625,63,41.9678836,-87.6788866
SOUTH LOOP PEDIATRICS,2329 S MICHIGAN AVE,CHICAGO,60616,52,41.8501796,-87.6232876
SOUTH SHORE HOSPITAL,8012 S CRANDON AVE,CHICAGO,60617,3126,41.7494001,-87.5690144
SOUTHSIDE CHILDREN'S HEALTH CENTER,500 E. 51ST ST 6TH FLOOR FRNTDESK,CHICAGO,60615,15538,41.8026933,-87.6134653
SOUTHTOWN MEDICAL CENTER,3844 W 63RD ST,CHICAGO,60629,187,41.7788583,-87.719609
SPECIALIZED MEDICAL CARE LLC,211 E CHICAGO AVE STE 1700,CHICAGO,60611,117,41.8964798,-87.6226883
ST. BERNARD HOSPITAL,326 W. 64TH ST PHAMARCY,CHICAGO,60621,13248,41.7784591,-87.6319315
ST. XAVIER UNIVERSITY HEALTH CENTER,3700 W 103RD ST # DC3925,CHICAGO,60655,5673,41.7089134,-87.7126049
STREETERVILLE INTERNAL MEDICINE,676 N SAINT CLAIR ST STE 1740,CHICAGO,60611,458,41.8945479,-87.6231058
STREETERVILLE PEDIATRICS,233 E ERIE ST,CHICAGO,60611,29,41.8939762,-87.6216083
SUE GIN HLTH CTR AT OAKLEY SQUARE,2334 W VAN BUREN ST,CHICAGO,60612,63,41.8764439,-87.6850889
SUNNYSIDE HEALTH CENTER,4501 N SHERIDAN RD,CHICAGO,60640,467,41.9637485,-87.6542208
SWEDISH HOSPITAL,2745 W FOSTER AVE,CHICAGO,60625,44429,41.975579,-87.698214
SWEDISH UPTOWN,5060 N BROADWAY ST,CHICAGO,60640,47,41.9742748,-87.6600116
TALCOTT PRIMARY CARE,7447 W TALCOTT AVE STE 409415,CHICAGO,60631,1481,41.9876675,-87.8145514
TCA HEALTH,1029 E 130TH ST,CHICAGO,60628,2841,41.6588162,-87.596804
TCA HEALTH CHATHAM,8425 S COTTAGE GROVE AVE,CHICAGO,60619,3,41.7413256,-87.6045156
THE ALT CLINIC,4727 N CLARK ST,CHICAGO,60640,5,41.9679382,-87.6670356
THE CHICAGO FIX DBA HEROES HLTHCARE,1360 N SANDBURG TER,CHICAGO,60610,893,41.9074567,-87.6325602
THE NIGHT MINISTRY,1735 N ASHLAND AVE,CHICAGO,60622-1435,884,41.9136299,-87.6674364
THOREK MEMORIAL HOSPITAL,850 W IRVING PARK RD,CHICAGO,60613,4703,41.9548115,-87.6520715
TILAHUN MEDICAL GROUP,2740 W FOSTER AVE,CHICAGO,60625,403,41.9761035,-87.6980073
TOTAL CARE PHYSICIANS LTD,3259 S WELLS ST,CHICAGO,60616,274,41.8347531,-87.6326527
TRU-CARE HOME HEALTH,4001 W DEVON AVE,CHICAGO,60646,20,41.9969403,-87.7291974
UIC CHILD & YOUTH CENTER,1801 W TAYLOR ST STE 2E,CHICAGO,60612,121856,41.8694703,-87.6717653
UNION HEALTH SERVICE,1634 W POLK ST,CHICAGO,60612,2315,41.8719325,-87.6678987
UNION MEDICAL CENTER,1657 W ADAMS ST,CHICAGO,60612,5416,41.8786258,-87.6689781
UNITED AIRLINES,10000 OHARE INTERNATIONAL AIRPORT AVE,CHICAGO,60666,4012,41.9848031,-87.8856908
CDPH FEMA,,CHICAGO,60609,287031,41.8062766,-87.6482474
UNIVERSITY OF CHICAGO VACCINE OUTREACH PROGRAM,5841 S MARYLAND AVE # MC6054,CHICAGO,60637-1443,3459,41.7892944,-87.6039963
UPTOWN WALK IN CLINIC,845 W WILSON AVE,CHICAGO,60640,96,41.9652111,-87.6520221
VANCOL FAMILY HEALTH,45 W 111TH ST FL 1,CHICAGO,60628,4,41.6922672,-87.6261192
VILLAGE DOCTOR LTD,2323 W CHICAGO AVE,CHICAGO,60622,3,41.8955874,-87.6854249
WALGREENS,5401 S WENTWORTH AVE,CHICAGO,60609,516,41.7957561,-87.6303028
WALGREENS,316 W CERMAK RD,CHICAGO,60616,6424,41.8533616,-87.6357588
WALGREENS,7111 S WESTERN AVE,CHICAGO,60636,4527,41.7640203,-87.6826906
WALGREENS,5935 W ADDISON ST,CHICAGO,60634,7586,41.9455209,-87.7755937
WALGREENS,259 E ERIE ST,CHICAGO,60611,473,41.8936913,-87.620953
WALGREENS,3800 W MADISON ST,CHICAGO,60624,1138,41.8809781,-87.7210465
WALGREENS,1333 W BELMONT AVE,CHICAGO,60657,1062,41.9395255,-87.6623445
WALGREENS,711 W NORTH AVE STE 204,CHICAGO,60610,265,41.9106471,-87.6462007
WALGREENS,2835 N SHEFFIELD  STE 505,CHICAGO,60657,12,41.9339403,-87.6537804
WALGREENS,6310 N NAGLE AVE,CHICAGO,60646,4972,41.9960818,-87.7878425
WALGREENS,1931 W CERMAK RD,CHICAGO,60608,5240,41.8518897,-87.6739089
WALGREENS,1650 W CHICAGO AVE,CHICAGO,60622,4027,41.8963119,-87.669284
WALGREENS,7410 N CLARK ST,CHICAGO,60626,6733,42.0164557,-87.6757643
WALGREENS,1372 N MILWAUKEE AVE,CHICAGO,60622,3265,41.9067535,-87.6722156
WALGREENS,1520 W FULLERTON AVE,CHICAGO,60614,4630,41.9253911,-87.666522
WALGREENS,1533 E 67TH PL,CHICAGO,60637,2828,41.7721845,-87.587369
WALGREENS,3646 N BROADWAY ST,CHICAGO,60613,2859,41.9484176,-87.648302
WALGREENS,3358 N WESTERN AVE,CHICAGO,60618,5817,41.9428002,-87.6898128
WALGREENS,7510 N WESTERN AVE,CHICAGO,60645,9607,42.0188511,-87.6910855
WALGREENS,1601 N WELLS ST,CHICAGO,60614,4562,41.9114375,-87.6341468
WALGREENS,3405 S KING DR,CHICAGO,60616,5691,41.8322995,-87.616304
WALGREENS,100 W RANDOLPH ST,CHICAGO,60601,4493,41.8851523,-87.6316709
WALGREENS,1926 W 35TH ST,CHICAGO,60609,5749,41.8306257,-87.6737548
WALGREENS,5140 W DIVERSEY AVE,CHICAGO,60639,3445,41.9316518,-87.7554978
WALGREENS,2744 N CALIFORNIA AVE,CHICAGO,60647,4902,41.9314557,-87.6979541
WALGREENS,3110 W ARMITAGE AVE,CHICAGO,60647,3764,41.9177386,-87.7060232
WALGREENS,1200 N DEARBORN ST,CHICAGO,60610,2815,41.9041461,-87.6304242
WALGREENS,4010 W LAWRENCE AVE,CHICAGO,60630,6479,41.9684565,-87.7288821
WALGREENS,4817 W FULLERTON AVE,CHICAGO,60639,4820,41.9239386,-87.747304
WALGREENS,4385 S ARCHER AVE,CHICAGO,60632,6558,41.8133964,-87.7048684
WALGREENS,3943 W 47TH ST,CHICAGO,60632,3691,41.8076947,-87.7227259
WALGREENS,1633 W 95TH ST,CHICAGO,60643,6190,41.7205689,-87.6635844
WALGREENS,6809 W BELMONT AVE,CHICAGO,60634,5660,41.9378667,-87.7965445
WALGREENS,5625 N RIDGE AVE,CHICAGO,60660,8085,41.984274,-87.6606561
WALGREENS,6140 N WESTERN AVE,CHICAGO,60659,8738,41.9933796,-87.6900779
WALGREENS,3000 S HALSTED ST,CHICAGO,60608,8606,41.8395117,-87.6471321
WALGREENS,3201 N BROADWAY ST,CHICAGO,60657,2743,41.9404236,-87.6440059
WALGREENS,5158 N LINCOLN AVE,CHICAGO,60625,7841,41.9756342,-87.6928463
WALGREENS,4005 W 26TH ST,CHICAGO,60623,5514,41.8440717,-87.7248828
WALGREENS,5230 N MILWAUKEE AVE,CHICAGO,60630,7136,41.9749397,-87.7674928
WALGREENS,3245 N HALSTED ST,CHICAGO,60657,9,41.9412596,-87.6490579
WALGREENS,3045 W 26TH ST,CHICAGO,60623,4779,41.8443191,-87.7021445
WALGREENS,757 N MICHIGAN AVE,CHICAGO,60611,3506,41.896539,-87.6239898
WALGREENS,4801 N LINCOLN AVE,CHICAGO,60625,7035,41.9688916,-87.6883863
WALGREENS,740 W DIVERSEY PKWY,CHICAGO,60614,4912,41.9329926,-87.6480917
WALGREENS,1554 E 55TH ST,CHICAGO,60615,7158,41.7955303,-87.588032
WALGREENS,3611 E 106TH ST,CHICAGO,60617,3878,41.7025084,-87.5357993
WALGREENS,122 S MICHIGAN AVE,CHICAGO,60603,4258,41.8800946,-87.624695
WALGREENS,834 W ARMITAGE AVE,CHICAGO,60614,2995,41.9183906,-87.649863
WALGREENS,912 W BELMONT AVE,CHICAGO,60657,3433,41.9401609,-87.6520611
WALGREENS,6121 N BROADWAY ST,CHICAGO,60660,6692,41.993084,-87.659891
WALGREENS,151 N STATE ST FL 1,CHICAGO,60601-3601,7026,41.8847994,-87.6276229
WALGREENS,1601 N MILWAUKEE AVE,CHICAGO,60647,5189,41.9108808,-87.6777837
WALGREENS,680 N LAKE SHORE DR,CHICAGO,60611,2496,41.894531,-87.6166312
WALGREENS,953 W IRVING PARK RD,CHICAGO,60613,6588,41.9542236,-87.6539778
WALGREENS,5440 N CLARK ST,CHICAGO,60640,5572,41.9811892,-87.668824
WALGREENS,11801 S AVENUE O,CHICAGO,60617,4569,41.6806357,-87.5390902
WALGREENS,5414 S ARCHER AVE,CHICAGO,60638,3907,41.7987952,-87.7438017
WALGREENS,1627 N PULASKI RD,CHICAGO,60639,5778,41.9110061,-87.7260349
WALGREENS,3424 W BELMONT AVE,CHICAGO,60618,4094,41.9395074,-87.713798
WALGREENS,250 S WACKER DR,CHICAGO,60606,3238,41.8784079,-87.6373375
WALGREENS,7109 S JEFFERY BLVD,CHICAGO,60649,5580,41.7658656,-87.5759634
WALGREENS,833 W 115TH ST,CHICAGO,60643,3066,41.6848373,-87.6432368
WALGREENS,30 N MICHIGAN AVE,CHICAGO,60602,4039,41.8829547,-87.6247085
WALGREENS,4001 W IRVING PARK RD,CHICAGO,60641,3379,41.9533715,-87.7279992
WALGREENS,2001 N MILWAUKEE AVE,CHICAGO,60647,6720,41.9177888,-87.6883855
WALGREENS,3320 W FULLERTON AVE,CHICAGO,60647,4800,41.924898,-87.7114888
WALGREENS,933 N STATE ST,CHICAGO,60610,2037,41.9002705,-87.6279705
WALGREENS,7155 W FOSTER AVE,CHICAGO,60656,7154,41.9751926,-87.8062614
WALGREENS,3220 W 111TH ST,CHICAGO,60655,5081,41.691929,-87.7019696
WALGREENS,3222 N MILWAUKEE AVE,CHICAGO,60618,4741,41.939616,-87.725206
WALGREENS,650 W 63RD ST,CHICAGO,60621,4276,41.7801258,-87.6416949
WALGREENS,2345 W 103RD ST,CHICAGO,60643,4185,41.7061397,-87.680842
WALGREENS,2 E ROOSEVELT RD,CHICAGO,60605,2913,41.867606,-87.6269581
WALGREENS,3019 W PETERSON AVE,CHICAGO,60659,9805,41.99012,-87.7051688
WALGREENS,11833 S WESTERN AVE,CHICAGO,60643,6551,41.6779513,-87.6803147
WALGREENS,4720 N MARINE DR,CHICAGO,60640,5614,41.967642,-87.6497169
WALGREENS,1614 W 47TH ST,CHICAGO,60609-3245,6265,41.8088905,-87.6658987
WALGREENS,6016 W 63RD ST,CHICAGO,60638,6969,41.7780653,-87.7724129
WALGREENS,7045 S PULASKI RD,CHICAGO,60629,7670,41.7646476,-87.7219563
WALGREENS,79 W MONROE ST,CHICAGO,60603,4583,41.8803227,-87.6305912
WALGREENS,4710 S WESTERN AVE,CHICAGO,60609,2957,41.807875,-87.6848507
WALGREENS,9148 S COMMERCIAL AVE,CHICAGO,60617-4307,5725,41.728518,-87.5520236
WALGREENS,8628 S COTTAGE GROVE AVE,CHICAGO,60619,11129,41.7378844,-87.6056006
WALGREENS,10300 S MICHIGAN AVE,CHICAGO,60628,2976,41.7069529,-87.6214918
WALGREENS,3153 W IRVING PARK RD,CHICAGO,60618-3409,7789,41.9535005,-87.7073535
WALGREENS,6315 S KEDZIE AVE,CHICAGO,60629,8278,41.7782539,-87.7028666
WALGREENS,2015 E 79TH ST,CHICAGO,60649,3318,41.7514066,-87.5750364
WALGREENS,4745 W BELMONT AVE,CHICAGO,60641,4285,41.9385924,-87.7459541
WALGREENS,111 S HALSTED ST,CHICAGO,60661,3674,41.8798827,-87.6469349
WALGREENS,4748 W NORTH AVE,CHICAGO,60639,8563,41.9099221,-87.7450304
WALGREENS,5753 N CANFIELD AVE,CHICAGO,60631,4544,41.9848169,-87.8226276
WALGREENS,4040 N CICERO AVE,CHICAGO,60641-1807,8466,41.9546224,-87.7476865
WALGREENS,4343 N CENTRAL AVE,CHICAGO,60634,7570,41.959909,-87.7668778
WALGREENS,1320 E 47TH ST,CHICAGO,60653,5016,41.8105144,-87.5940258
WALGREENS,4025 N SHERIDAN RD,CHICAGO,60613,58,41.9551883,-87.6541817
WALGREENS,1649 W BELMONT AVE,CHICAGO,60657,4165,41.9394477,-87.6704769
WALGREENS,501 W ROOSEVELT RD,CHICAGO,60607,3343,41.8665533,-87.6395364
WALGREENS,5222 W MADISON ST,CHICAGO,60644-4141,5435,41.880663,-87.7559592
WALGREENS,201 W MADISON ST,CHICAGO,60606,4293,41.8815978,-87.6343696
WALGREENS,1546 N CENTRAL AVE,CHICAGO,60651-1259,3422,41.9089634,-87.7667056
WALGREENS,4343 N KEDZIE AVE,CHICAGO,60618-1301,7414,41.9605689,-87.7078701
WALGREENS,2340 W MADISON ST,CHICAGO,60612-2228,2611,41.8814364,-87.6853093
WALGREENS,3046 N HALSTED ST,CHICAGO,60657-5120,3872,41.9377554,-87.65002
WALGREENS,11 E 75TH ST,CHICAGO,60619-1601,1447,41.7570831,-87.6242655
WALGREENS,3401 W ROOSEVELT RD,CHICAGO,60624-4339,3105,41.8659828,-87.7116346
WALGREENS,5874 S ARCHER AVE,CHICAGO,60638-1645,7578,41.7960397,-87.7616495
WALGREENS,4700 S HALSTED ST,CHICAGO,60609-4416,5948,41.8084857,-87.6461661
WALGREENS,641 N CLARK ST,CHICAGO,60654-3796,5522,41.893779,-87.6308594
WALGREENS,2440 W NORTH AVE,CHICAGO,60647-5331,4977,41.9106715,-87.6888449
WALGREENS,1500 W WILSON AVE,CHICAGO,60640-5416,6188,41.9655468,-87.6677658
WALGREENS,7150 W ARCHER AVE,CHICAGO,60638-2225,4339,41.792482,-87.8011158
WALGREENS,2301 W IRVING PARK RD,CHICAGO,60618-3823,6146,41.9537461,-87.6863905
WALGREENS,200 W ADAMS ST,CHICAGO,60606,2343,41.8797766,-87.634139
WALGREENS,1616 E 87TH ST,CHICAGO,60617,4795,41.7371258,-87.5841464
WALGREENS,342 E ILLINOIS ST,CHICAGO,60611,5814,41.8912736,-87.6185221
WALGREENS,5036 S COTTAGE GROVE AVE,CHICAGO,60615,5525,41.8029062,-87.6071051
WALGREENS,5435 S KEDZIE AVE,CHICAGO,60632,10106,41.7941087,-87.7033286
WALGREENS,5600 W FULLERTON AVE,CHICAGO,60639-2305,10550,41.9244326,-87.766724
WALGREENS,6500 N CLARK ST,CHICAGO,60626,30,41.9999713,-87.6715977
WALGREENS,2351 E 71ST ST,CHICAGO,60649,499,41.7658061,-87.5669555
WALGREENS,2 N STATE ST,CHICAGO,60602,3589,41.8822987,-87.628587
WALGREENS,2500 N CLARK ST,CHICAGO,60614,3578,41.9277446,-87.6422902
WALGREENS,410 N MICHIGAN AVE,CHICAGO,60611,6658,41.8902405,-87.6247386
WALGREENS,201 E HURON ST,CHICAGO,60611,1499,41.8946395,-87.6222291
WALGREENS,315 W CHICAGO AVE,CHICAGO,60654,2778,41.8963754,-87.6364633
WALGREENS,1213 W 79TH ST,CHICAGO,60620,390,41.7502384,-87.6544907
WALMART,4626 W DIVERSITY AVE,CHICAGO,60639,8242,41.9342784,-87.7430235
WALMART,4720 S COTTAGE GROVE AVE,CHICAGO,60615,635,41.8087674,-87.6067688
WALMART,7535 S ASHLAND AVE,CHICAGO,60620,957,41.7563997,-87.6631991
WALMART,10900 S DOTY AVE,CHICAGO,60628-3804,6239,41.6967669,-87.5991962
WALMART,8331 S STEWART AVE,CHICAGO,60620-1728,6603,41.7402379,-87.6329824
WALMART,2551 W CERMAK RD,CHICAGO,60608-3719,2864,41.8517533,-87.690233
WALMART,2844 N BROADWAY ST,CHICAGO,60657-6017,3548,41.9341232,-87.6444908
WALMART,4650 W NORTH AVE,CHICAGO,60639-4611,10345,41.911491,-87.7428073
WALMART,4626 W DIVERSITY AVE,CHICAGO,60639,"15,361",41.9342784,-87.7430235
WALMART,8410 S HOLLAND RD,CHICAGO,60620,4,41.7404664,-87.6319682
WEISS MEMORIAL HOSPITAL,4646 N MARINE DR,CHICAGO,60640,12344,41.9666548,-87.6490155
WEISSBLUTH PEDIATRICS - MICHIGAN,737 N MICHIGAN AVE,CHICAGO,60611,122,41.8959995,-87.6238055
WEISSBLUTH PEDIATRICS - SOUTH LOOP,1471 S MICHIGAN AVE,CHICAGO,60605,2,41.8620747,-87.6238382
WELL FUTURE PHARMACY,661 N WELLS ST,CHICAGO,60654-3616,5972,41.8945219,-87.6338147
WINFIELD MOODY CENTER,1276 N CLYBOURN AVE # 2,CHICAGO,60610,2635,41.9052523,-87.6422725
